IRIDIUM 921             
1 24873U 97034E   24120.57891283  .00024487  00000+0  69625-3 0  9994
2 24873  86.3795 312.1328 0005561  84.3995 275.7891 15.36012603467710
IRIDIUM 26              
1 24903U 97043A   24120.84242854  .00000829  00000+0  27714-3 0  9999
2 24903  86.3911 284.0500 0002206  86.5682 273.5768 14.36315224397864
IRIDIUM 22              
1 24907U 97043E   24120.51211471  .00000815  00000+0  27828-3 0  9999
2 24907  86.3913 287.3897 0002115  92.6538 267.4901 14.35205146397425
DUMMY MASS 1            
1 24925U 97048A   24120.58083057  .00000695  00000+0  75984-4 0  9991
2 24925  86.3329 326.4634 0007532 153.9939 206.1665 14.86163173443680
DUMMY MASS 2            
1 24926U 97048B   24120.60955564  .00000683  00000+0  75092-4 0  9993
2 24926  86.3331 327.9848 0007851 165.6764 194.4684 14.85922033443471
IRIDIUM 29              
1 24944U 97051A   24120.59988858  .00000652  00000+0  21915-3 0  9997
2 24944  86.3927 317.2898 0002196  95.6151 264.5296 14.35657677393913
IRIDIUM 33              
1 24946U 97051C   24120.58127233  .00000458  00000+0  15613-3 0  9992
2 24946  86.3841 316.5523 0007789   4.2306 355.8954 14.34328724393448
IRIDIUM 28              
1 24948U 97051E   24120.56631648  .00000682  00000+0  22545-3 0  9993
2 24948  86.3928 315.0554 0002217  78.4332 281.7114 14.36607451394442
